{
  "type": "FeatureCollection",
  "features": [
    {
      "type": "Feature",
      "properties": {
        "norad_id": 37238,
        "name": "INTELSAT 17 (IS-17)",
        "group": "intelsat",
        "lat": 0.02561006896369071,
        "lon": 73.34867401641613,
        "alt_km": 35796.55115374213,
        "timestamp": "2025-12-04T19:33:59.298831+00:00",
        "meta_object_name": "INTELSAT 17 (IS-17)",
        "meta_object_id": "2010-065B",
        "meta_epoch": "2025-12-04T03:45:57.456000",
        "meta_mean_motion": 1.00269312,
        "meta_eccentricity": 0.0002322,
        "meta_inclination": 0.0139,
        "meta_ra_of_asc_node": 286.2982,
        "meta_arg_of_pericenter": 322.1387,
        "meta_mean_anomaly": 307.283,
        "meta_ephemeris_type": 0,
        "meta_classification_type": "U",
        "meta_norad_cat_id": 37238,
        "meta_element_set_no": 999,
        "meta_rev_at_epoch": 5129,
        "meta_bstar": 0,
        "meta_mean_motion_dot": 1.5e-07,
        "meta_mean_motion_ddot": 0,
        "tle_line1": "1 37238U 10065B   25338.15691500  .00000015  00000+0  00000+0 0  9997",
        "tle_line2": "2 37238   0.0139 286.2982 0002322 322.1387 307.2830  1.00269312 51294"
      },
      "geometry": {
        "type": "Point",
        "coordinates": [
          73.34867401641613,
          0.02561006896369071
        ]
      }
    },
    {
      "type": "Feature",
      "properties": {
        "norad_id": 37392,
        "name": "INTELSAT 28 (IS-28)",
        "group": "intelsat",
        "lat": -1.2242165477496654,
        "lon": -24.300714815683204,
        "alt_km": 35782.499030731364,
        "timestamp": "2025-12-04T19:33:59.298842+00:00",
        "meta_object_name": "INTELSAT 28 (IS-28)",
        "meta_object_id": "2011-016A",
        "meta_epoch": "2025-12-04T06:43:33.905856",
        "meta_mean_motion": 1.00271033,
        "meta_eccentricity": 0.00041248,
        "meta_inclination": 1.3011,
        "meta_ra_of_asc_node": 85.1581,
        "meta_arg_of_pericenter": 173.8071,
        "meta_mean_anomaly": 243.578,
        "meta_ephemeris_type": 0,
        "meta_classification_type": "U",
        "meta_norad_cat_id": 37392,
        "meta_element_set_no": 999,
        "meta_rev_at_epoch": 5133,
        "meta_bstar": 0,
        "meta_mean_motion_dot": -2.1e-06,
        "meta_mean_motion_ddot": 0,
        "tle_line1": "1 37392U 11016A   25338.28025354 -.00000210  00000+0  00000+0 0  9995",
        "tle_line2": "2 37392   1.3011  85.1581 0004124 173.8071 243.5780  1.00271033 51336"
      },
      "geometry": {
        "type": "Point",
        "coordinates": [
          -24.300714815683204,
          -1.2242165477496654
        ]
      }
    },
    {
      "type": "Feature",
      "properties": {
        "norad_id": 37834,
        "name": "INTELSAT 18 (IS-18)",
        "group": "intelsat",
        "lat": -0.02923559533591147,
        "lon": -172.66490945664142,
        "alt_km": 35782.7306091799,
        "timestamp": "2025-12-04T19:33:59.298853+00:00",
        "meta_object_name": "INTELSAT 18 (IS-18)",
        "meta_object_id": "2011-056A",
        "meta_epoch": "2025-12-03T18:01:38.697312",
        "meta_mean_motion": 1.00271033,
        "meta_eccentricity": 0.00021013,
        "meta_inclination": 0.0165,
        "meta_ra_of_asc_node": 322.052,
        "meta_arg_of_pericenter": 292.2737,
        "meta_mean_anomaly": 268.919,
        "meta_ephemeris_type": 0,
        "meta_classification_type": "U",
        "meta_norad_cat_id": 37834,
        "meta_element_set_no": 999,
        "meta_rev_at_epoch": 5185,
        "meta_bstar": 0,
        "meta_mean_motion_dot": 7e-07,
        "meta_mean_motion_ddot": 0,
        "tle_line1": "1 37834U 11056A   25337.75114233  .00000070  00000+0  00000+0 0  9999",
        "tle_line2": "2 37834   0.0165 322.0520 0002101 292.2737 268.9190  1.00271033 51850"
      },
      "geometry": {
        "type": "Point",
        "coordinates": [
          -172.66490945664142,
          -0.02923559533591147
        ]
      }
    },
    {
      "type": "Feature",
      "properties": {
        "norad_id": 38098,
        "name": "INTELSAT 22 (IS-22)",
        "group": "intelsat",
        "lat": 0.027952508378701592,
        "lon": 79.46336073529508,
        "alt_km": 35793.542118857855,
        "timestamp": "2025-12-04T19:33:59.298863+00:00",
        "meta_object_name": "INTELSAT 22 (IS-22)",
        "meta_object_id": "2012-011A",
        "meta_epoch": "2025-12-04T03:49:27.121152",
        "meta_mean_motion": 1.00270652,
        "meta_eccentricity": 0.0001688,
        "meta_inclination": 0.0051,
        "meta_ra_of_asc_node": 354.4289,
        "meta_arg_of_pericenter": 265.171,
        "meta_mean_anomaly": 303.1053,
        "meta_ephemeris_type": 0,
        "meta_classification_type": "U",
        "meta_norad_cat_id": 38098,
        "meta_element_set_no": 999,
        "meta_rev_at_epoch": 523,
        "meta_bstar": 0,
        "meta_mean_motion_dot": -4.2e-07,
        "meta_mean_motion_ddot": 0,
        "tle_line1": "1 38098U 12011A   25338.15934168 -.00000042  00000+0  00000+0 0  9996",
        "tle_line2": "2 38098   0.0051 354.4289 0001688 265.1710 303.1053  1.00270652  5234"
      },
      "geometry": {
        "type": "Point",
        "coordinates": [
          79.46336073529508,
          0.027952508378701592
        ]
      }
    },
    {
      "type": "Feature",
      "properties": {
        "norad_id": 38356,
        "name": "INTELSAT 19 (IS-19)",
        "group": "intelsat",
        "lat": -0.018624110887842833,
        "lon": 173.32743957049271,
        "alt_km": 35785.380112095496,
        "timestamp": "2025-12-04T19:33:59.298874+00:00",
        "meta_object_name": "INTELSAT 19 (IS-19)",
        "meta_object_id": "2012-030A",
        "meta_epoch": "2025-12-03T17:54:54.751392",
        "meta_mean_motion": 1.0026956,
        "meta_eccentricity": 0.00034388,
        "meta_inclination": 0.0103,
        "meta_ra_of_asc_node": 319.4914,
        "meta_arg_of_pericenter": 298.7434,
        "meta_mean_anomaly": 249.3378,
        "meta_ephemeris_type": 0,
        "meta_classification_type": "U",
        "meta_norad_cat_id": 38356,
        "meta_element_set_no": 999,
        "meta_rev_at_epoch": 4849,
        "meta_bstar": 0,
        "meta_mean_motion_dot": -3.9e-07,
        "meta_mean_motion_ddot": 0,
        "tle_line1": "1 38356U 12030A   25337.74646703 -.00000039  00000+0  00000+0 0  9999",
        "tle_line2": "2 38356   0.0103 319.4914 0003438 298.7434 249.3378  1.00269560 48497"
      },
      "geometry": {
        "type": "Point",
        "coordinates": [
          173.32743957049271,
          -0.018624110887842833
        ]
      }
    },
    {
      "type": "Feature",
      "properties": {
        "norad_id": 38740,
        "name": "INTELSAT 20 (IS-20)",
        "group": "intelsat",
        "lat": 0.0386524244036314,
        "lon": 75.80663178377428,
        "alt_km": 35792.248412286324,
        "timestamp": "2025-12-04T19:33:59.298884+00:00",
        "meta_object_name": "INTELSAT 20 (IS-20)",
        "meta_object_id": "2012-043A",
        "meta_epoch": "2025-12-04T01:57:38.699424",
        "meta_mean_motion": 1.00269018,
        "meta_eccentricity": 0.000319,
        "meta_inclination": 0.0144,
        "meta_ra_of_asc_node": 345.8183,
        "meta_arg_of_pericenter": 203.5468,
        "meta_mean_anomaly": 341.693,
        "meta_ephemeris_type": 0,
        "meta_classification_type": "U",
        "meta_norad_cat_id": 38740,
        "meta_element_set_no": 999,
        "meta_rev_at_epoch": 4879,
        "meta_bstar": 0,
        "meta_mean_motion_dot": 0,
        "meta_mean_motion_ddot": 0,
        "tle_line1": "1 38740U 12043A   25338.08169791  .00000000  00000+0  00000+0 0  9992",
        "tle_line2": "2 38740   0.0144 345.8183 0003190 203.5468 341.6930  1.00269018 48797"
      },
      "geometry": {
        "type": "Point",
        "coordinates": [
          75.80663178377428,
          0.0386524244036314
        ]
      }
    },
    {
      "type": "Feature",
      "properties": {
        "norad_id": 38749,
        "name": "INTELSAT 21 (IS-21)",
        "group": "intelsat",
        "lat": -0.0149313307297224,
        "lon": -50.615555017597615,
        "alt_km": 35781.85231752242,
        "timestamp": "2025-12-04T19:33:59.298894+00:00",
        "meta_object_name": "INTELSAT 21 (IS-21)",
        "meta_object_id": "2012-045A",
        "meta_epoch": "2025-12-04T04:53:13.510176",
        "meta_mean_motion": 1.00271946,
        "meta_eccentricity": 0.0002258,
        "meta_inclination": 0.0178,
        "meta_ra_of_asc_node": 332.2825,
        "meta_arg_of_pericenter": 273.4171,
        "meta_mean_anomaly": 202.8877,
        "meta_ephemeris_type": 0,
        "meta_classification_type": "U",
        "meta_norad_cat_id": 38749,
        "meta_element_set_no": 999,
        "meta_rev_at_epoch": 4857,
        "meta_bstar": 0,
        "meta_mean_motion_dot": -2.69e-06,
        "meta_mean_motion_ddot": 0,
        "tle_line1": "1 38749U 12045A   25338.20362859 -.00000269  00000+0  00000+0 0  9995",
        "tle_line2": "2 38749   0.0178 332.2825 0002258 273.4171 202.8877  1.00271946 48574"
      },
      "geometry": {
        "type": "Point",
        "coordinates": [
          -50.615555017597615,
          -0.0149313307297224
        ]
      }
    }
  ]
}